[{"OBJECT_NAME":"STARLINK-32876","OBJECT_ID":"2025-043V","EPOCH":"2026-03-09T04:56:56.091264","MEAN_MOTION":15.27605565,"ECCENTRICITY":0.00022536,"INCLINATION":43.0031,"RA_OF_ASC_NODE":18.5061,"ARG_OF_PERICENTER":243.8999,"MEAN_ANOMALY":116.1621,"EPHEMERIS_TYPE":0,"CLASSIFICATION_TYPE":"U","NORAD_CAT_ID":63151,"ELEMENT_SET_NO":999,"REV_AT_EPOCH":5729,"BSTAR":0.0012931379,"MEAN_MOTION_DOT":0.00035523,"MEAN_MOTION_DDOT":0},{"OBJECT_NAME":"COSMOS 1758","OBJECT_ID":"1986-046A","EPOCH":"2026-03-09T22:23:33.220896","MEAN_MOTION":15.25706639,"ECCENTRICITY":0.00131526,"INCLINATION":82.4607,"RA_OF_ASC_NODE":143.3203,"ARG_OF_PERICENTER":337.3781,"MEAN_ANOMALY":22.6875,"EPHEMERIS_TYPE":0,"CLASSIFICATION_TYPE":"U","NORAD_CAT_ID":16791,"ELEMENT_SET_NO":999,"REV_AT_EPOCH":16610,"BSTAR":0.00027304427,"MEAN_MOTION_DOT":7.006e-5,"MEAN_MOTION_DDOT":0}]
